CSS (TIANHE)            
1 48274U 21035A   23323.17010451  .00025754  00000+0  28879-3 0  9997
2 48274  41.4718 292.2808 0005272 180.1707 179.9131 15.62053255146065
